CCSDS_OMM_VERS,COMMENT,CREATION_DATE,ORIGINATOR,OBJECT_NAME,OBJECT_ID,CENTER_NAME,REF_FRAME,TIME_SYSTEM,MEAN_ELEMENT_THEORY,EPOCH,MEAN_MOTION,ECCENTRICITY,INCLINATION,RA_OF_ASC_NODE,ARG_OF_PERICENTER,MEAN_ANOMALY,EPHEMERIS_TYPE,CLASSIFICATION_TYPE,NORAD_CAT_ID,ELEMENT_SET_NO,REV_AT_EPOCH,BSTAR,MEAN_MOTION_DOT,MEAN_MOTION_DDOT,SEMIMAJOR_AXIS,PERIOD,APOAPSIS,PERIAPSIS,OBJECT_TYPE,RCS_SIZE,COUNTRY_CODE,LAUNCH_DATE,SITE,DECAY_DATE,FILE,GP_ID,TLE_LINE0,TLE_LINE1,TLE_LINE2
"2.0","GENERATED VIA SPACE-TRACK.ORG API","2013-04-25T00:43:20","18 SPCS","BLITS","2009-049G","EARTH","TEME","UTC","SGP4","2013-04-25T01:46:58.290528","14.21644965","0.00026580","98.5989","167.5416","220.8445","139.2511","0","U","35871","999","18627","0.00001970100000","0.00000000","0.0000000000000","7197.936","101.291","821.714","817.888","PAYLOAD","SMALL","CIS","2009-09-17","TTMTR","","1474647","92727232","0 BLITS","1 35871U 09049G   13115.07428577  .00000000  00000-0  19701-4 0  9999","2 35871 098.5989 167.5416 0002658 220.8445 139.2511 14.21644965186278"
"2.0","GENERATED VIA SPACE-TRACK.ORG API","2013-04-25T17:08:00","18 SPCS","BLITS","2009-049G","EARTH","TEME","UTC","SGP4","2013-04-25T18:40:27.566976","14.21643702","0.00029130","98.5945","168.2237","210.4297","149.6658","0","U","35871","999","18637","-0.00002752400000","-0.00000103","0.0000000000000","7197.940","101.291","821.902","817.709","PAYLOAD","SMALL","CIS","2009-09-17","TTMTR","","1474965","92731459","0 BLITS","1 35871U 09049G   13115.77809684 -.00000103  00000-0 -27524-4 0  9996","2 35871 098.5945 168.2237 0002913 210.4297 149.6658 14.21643702186379"
"2.0","GENERATED VIA SPACE-TRACK.ORG API","2013-04-26T00:47:34","18 SPCS","BLITS","2009-049G","EARTH","TEME","UTC","SGP4","2013-04-26T03:07:12.216000","14.21643868","0.00029030","98.5937","168.5662","210.3792","149.7223","0","U","35871","999","18642","-0.00002177100000","-0.00000091","0.0000000000000","7197.940","101.291","821.894","817.715","PAYLOAD","SMALL","CIS","2009-09-17","TTMTR","","1475174","92734834","0 BLITS","1 35871U 09049G   13116.13000250 -.00000091  00000-0 -21771-4 0  9993","2 35871 098.5937 168.5662 0002903 210.3792 149.7223 14.21643868186421"
"2.0","GENERATED VIA SPACE-TRACK.ORG API","2013-04-27T00:40:43","18 SPCS","BLITS","2009-049G","EARTH","TEME","UTC","SGP4","2013-04-27T02:46:05.040767","14.21643938","0.00033960","98.5931","169.5279","205.3016","154.8083","0","U","35871","999","18656","-0.00002399900000","-0.00000095","0.0000000000000","7197.940","101.291","822.249","817.360","PAYLOAD","SMALL","CIS","2009-09-17","TTMTR","","1475705","92742396","0 BLITS","1 35871U 09049G   13117.11533612 -.00000095  00000-0 -23999-4 0  9993","2 35871 098.5931 169.5279 0003396 205.3016 154.8083 14.21643938186564"
"2.0","GENERATED VIA SPACE-TRACK.ORG API","2013-04-27T16:48:30","18 SPCS","BLITS","2009-049G","EARTH","TEME","UTC","SGP4","2013-04-27T14:35:31.310591","14.21644072","0.00034020","98.5933","170.0080","202.9456","157.1582","0","U","35871","999","18663","-0.00001681700000","-0.00000080","0.0000000000000","7197.939","101.291","822.253","817.355","PAYLOAD","SMALL","CIS","2009-09-17","TTMTR","","1475969","92747321","0 BLITS","1 35871U 09049G   13117.60800128 -.00000080  00000-0 -16817-4 0  9991","2 35871 098.5933 170.0080 0003402 202.9456 157.1582 14.21644072186630"
"2.0","GENERATED VIA SPACE-TRACK.ORG API","2013-04-28T16:46:58","18 SPCS","BLITS","2009-049G","EARTH","TEME","UTC","SGP4","2013-04-28T15:55:45.033888","14.21643953","0.00034420","98.5932","171.0358","199.4441","160.6608","0","U","35871","999","18678","-0.00001964600000","-0.00000086","0.0000000000000","7197.940","101.291","822.282","817.327","PAYLOAD","SMALL","CIS","2009-09-17","TTMTR","","1476429","92754744","0 BLITS","1 35871U 09049G   13118.66371567 -.00000086  00000-0 -19646-4 0  9997","2 35871 098.5932 171.0358 0003442 199.4441 160.6608 14.21643953186787"
"2.0","GENERATED VIA SPACE-TRACK.ORG API","2013-04-29T00:45:22","18 SPCS","BLITS","2009-049G","EARTH","TEME","UTC","SGP4","2013-04-29T02:03:50.530464","14.21644581","0.00034720","98.5934","171.4481","198.2265","161.8858","0","U","35871","999","18684","0.00000207370000","-0.00000038","0.0000000000000","7197.937","101.291","822.302","817.303","PAYLOAD","SMALL","CIS","2009-09-17","TTMTR","","1476575","92757264","0 BLITS","1 35871U 09049G   13119.08600151 -.00000038  00000-0  20737-5 0  9998","2 35871 098.5934 171.4481 0003472 198.2265 161.8858 14.21644581186849"
"2.0","GENERATED VIA SPACE-TRACK.ORG API","2013-05-05T00:48:38","18 SPCS","BLITS","2009-049G","EARTH","TEME","UTC","SGP4","2013-05-05T03:19:48.371520","14.21646048","0.00033890","98.5943","177.3482","178.6219","181.4921","0","U","35871","999","18770","0.00002123700000","0.00000004","0.0000000000000","7197.932","101.291","822.237","817.358","PAYLOAD","SMALL","CIS","2009-09-17","TTMTR","","1478498","92785974","0 BLITS","1 35871U 09049G   13125.13875430  .00000004  00000-0  21237-4 0  9992","2 35871 098.5943 177.3482 0003389 178.6219 181.4921 14.21646048187708"
"2.0","GENERATED VIA SPACE-TRACK.ORG API","2013-05-05T08:44:50","18 SPCS","BLITS","2009-049G","EARTH","TEME","UTC","SGP4","2013-05-05T08:23:51.174240","14.21645749","0.00032980","98.5944","177.5538","178.7698","181.3458","0","U","35871","999","18773","0.00000968020000","-0.00000022","0.0000000000000","7197.933","101.291","822.172","817.425","PAYLOAD","SMALL","CIS","2009-09-17","TTMTR","","1478618","92788445","0 BLITS","1 35871U 09049G   13125.34989785 -.00000022  00000-0  96802-5 0  9996","2 35871 098.5944 177.5538 0003298 178.7698 181.3458 14.21645749187738"
"2.0","GENERATED VIA SPACE-TRACK.ORG API","2013-05-05T16:39:02","18 SPCS","BLITS","2009-049G","EARTH","TEME","UTC","SGP4","2013-05-05T20:13:17.587488","14.21645540","0.00032390","98.5944","178.0339","178.4386","181.6785","0","U","35871","999","18780","0.00000101270000","-0.00000041","0.0000000000000","7197.934","101.291","822.131","817.468","PAYLOAD","SMALL","CIS","2009-09-17","TTMTR","","1478793","92791343","0 BLITS","1 35871U 09049G   13125.84256467 -.00000041  00000-0  10127-5 0  9992","2 35871 098.5944 178.0339 0003239 178.4386 181.6785 14.21645540187802"
"2.0","GENERATED VIA SPACE-TRACK.ORG API","2013-05-06T00:39:24","18 SPCS","BLITS","2009-049G","EARTH","TEME","UTC","SGP4","2013-05-06T02:58:41.248128","14.21645549","0.00032420","98.5944","178.3079","177.5787","182.5404","0","U","35871","999","18784","0.00000096387000","-0.00000041","0.0000000000000","7197.934","101.291","822.133","817.466","PAYLOAD","SMALL","CIS","2009-09-17","TTMTR","","1478949","92793869","0 BLITS","1 35871U 09049G   13126.12408852 -.00000041  00000-0  96387-6 0  9994","2 35871 098.5944 178.3079 0003242 177.5787 182.5404 14.21645549187846"
"2.0","GENERATED VIA SPACE-TRACK.ORG API","2013-05-06T08:39:12","18 SPCS","BLITS","2009-049G","EARTH","TEME","UTC","SGP4","2013-05-06T08:02:43.981727","14.21645556","0.00032490","98.5944","178.5136","176.8843","183.2356","0","U","35871","999","18787","0.00000121300000","-0.00000040","0.0000000000000","7197.934","101.291","822.138","817.461","PAYLOAD","SMALL","CIS","2009-09-17","TTMTR","","1479064","92796160","0 BLITS","1 35871U 09049G   13126.33523127 -.00000040  00000-0  12130-5 0  9992","2 35871 098.5944 178.5136 0003249 176.8843 183.2356 14.21645556187879"
"2.0","GENERATED VIA SPACE-TRACK.ORG API","2013-05-06T16:41:17","18 SPCS","BLITS","2009-049G","EARTH","TEME","UTC","SGP4","2013-05-06T19:52:10.348320","14.21645480","0.00032380","98.5944","178.9936","175.2975","184.8224","0","U","35871","999","18794","-0.00000119670000","-0.00000045","0.0000000000000","7197.934","101.291","822.130","817.469","PAYLOAD","SMALL","CIS","2009-09-17","TTMTR","","1479266","92798956","0 BLITS","1 35871U 09049G   13126.82789755 -.00000045  00000-0 -11967-5 0  9990","2 35871 098.5944 178.9936 0003238 175.2975 184.8224 14.21645480187943"
"2.0","GENERATED VIA SPACE-TRACK.ORG API","2013-05-07T08:39:20","18 SPCS","BLITS","2009-049G","EARTH","TEME","UTC","SGP4","2013-05-07T02:37:34.003775","14.21645449","0.00032080","98.5944","179.2687","176.1705","183.9506","0","U","35871","999","18798","-0.00000326500000","-0.00000050","0.0000000000000","7197.934","101.291","822.109","817.490","PAYLOAD","SMALL","CIS","2009-09-17","TTMTR","","1479573","92803594","0 BLITS","1 35871U 09049G   13127.10942134 -.00000050  00000-0 -32650-5 0  9992","2 35871 098.5944 179.2687 0003208 176.1705 183.9506 14.21645449187980"
"2.0","GENERATED VIA SPACE-TRACK.ORG API","2013-05-07T16:42:09","18 SPCS","BLITS","2009-049G","EARTH","TEME","UTC","SGP4","2013-05-07T19:31:03.091007","14.21645412","0.00030420","98.5965","179.9574","173.6243","186.4964","0","U","35871","999","18808","-0.00000044773000","-0.00000044","0.0000000000000","7197.935","101.291","821.989","817.610","PAYLOAD","SMALL","CIS","2009-09-17","TTMTR","","1479756","92806387","0 BLITS","1 35871U 09049G   13127.81323022 -.00000044  00000-0 -44773-6 0  9992","2 35871 098.5965 179.9574 0003042 173.6243 186.4964 14.21645412188088"
"2.0","GENERATED VIA SPACE-TRACK.ORG API","2013-05-08T00:37:37","18 SPCS","BLITS","2009-049G","EARTH","TEME","UTC","SGP4","2013-05-08T00:35:05.836703","14.21645449","0.00030510","98.5964","180.1630","173.4217","186.7007","0","U","35871","999","18811","0.00000044792000","-0.00000042","0.0000000000000","7197.934","101.291","821.996","817.603","PAYLOAD","SMALL","CIS","2009-09-17","TTMTR","","1479918","92809031","0 BLITS","1 35871U 09049G   13128.02437311 -.00000042  00000-0  44792-6 0  9991","2 35871 098.5964 180.1630 0003051 173.4217 186.7007 14.21645449188118"
